*******************************************************************************
Ephemeris / WWW_USER Mon Mar 24 08:50:53 2025 Pasadena, USA      / Horizons    
*******************************************************************************
Target body name: (2018 PU7)                      {source: JPL#13}
Center body name: Earth (399)                     {source: DE441}
Center-site name: Mauna Kea
*******************************************************************************
Start time      : A.D. 2018-Nov-15 03:52:00.0000 UT      
Stop  time      : A.D. 2018-Nov-15 16:20:00.0000 UT      
Step-size       : 1 minutes
*******************************************************************************
Target pole/equ : undefined
Target radii    : undefined                                                    
Center geodetic : 204.5278, 19.8260847, 4.21024   {E-lon(deg),Lat(deg),Alt(km)}
Center cylindric: 204.5278, 6006.35451, 2151.0229 {E-lon(deg),Dxy(km),Dz(km)}
Center pole/equ : ITRF93                          {East-longitude positive}
Center radii    : 6378.137, 6378.137, 6356.752 km {Equator_a, b, pole_c}       
Target primary  : Sun
Vis. interferer : MOON (R_eq= 1737.400) km        {source: DE441}
Rel. light bend : Sun                             {source: DE441}
Rel. lght bnd GM: 1.3271E+11 km^3/s^2                                          
Small-body perts: Yes                             {source: SB441-N16}
Atmos refraction: NO (AIRLESS)
RA format       : HMS
Time format     : CAL 
Calendar mode   : Mixed Julian/Gregorian
RTS-only print  : NO       
EOP file        : eop.250321.p250617                                           
EOP coverage    : DATA-BASED 1962-JAN-20 TO 2025-MAR-21. PREDICTS-> 2025-JUN-16
Units conversion: 1 au= 149597870.700 km, c= 299792.458 km/s, 1 day= 86400.0 s 
Table cut-offs 1: Elevation (-90.0deg=NO ),Airmass (>38.000=NO), Daylight (YES)
Table cut-offs 2: Solar elongation (  0.0,180.0=NO ),Local Hour Angle( 0.0=NO )
Table cut-offs 3: RA/DEC angular rate (     0.0=NO )                           
*******************************************************************************
Initial IAU76/J2000 heliocentric ecliptic osculating elements (au, days, deg.):
  EPOCH=  2458344.5 ! 2018-Aug-14.00 (TDB)         Residual RMS= .35253        
   EC= .5418411610879256   QR= .9908981152950816   TP= 2458306.0483912583      
   OM= 307.3200871504195   W=  329.2166965634538   IN= 6.906215163822786       
  Equivalent ICRF heliocentric cartesian coordinates (au, au/d):
   X= 8.533350742151261E-01  Y=-6.504796009993946E-01  Z=-2.480927258064065E-01
  VX= 1.615085148536055E-02 VY= 9.661045842052620E-03 VZ= 6.810490395822813E-03
Asteroid physical parameters (km, seconds, rotational period in hours):        
   GM= n.a.                RAD= n.a.               ROTPER= n.a.                
   H= 23.4                 G= .150                 B-V= n.a.                   
                           ALBEDO= n.a.            STYP= n.a.                  
*******************************************************************************
 Date__(UT)__HR:MN     R.A._________(ICRF)_________DEC
******************************************************
$$SOE
 2018-Nov-15 03:52 Cm  23 08 28.374049 +06 22 00.71724
 2018-Nov-15 03:53 Cm  23 08 28.428196 +06 22 00.82468
 2018-Nov-15 03:54 Cm  23 08 28.482338 +06 22 00.93211
 2018-Nov-15 03:55 Cm  23 08 28.536475 +06 22 01.03953
 2018-Nov-15 03:56 Cm  23 08 28.590607 +06 22 01.14694
 2018-Nov-15 03:57 Cm  23 08 28.644735 +06 22 01.25434
 2018-Nov-15 03:58 Cm  23 08 28.698858 +06 22 01.36173
 2018-Nov-15 03:59 Cm  23 08 28.752977 +06 22 01.46910
 2018-Nov-15 04:00 Cm  23 08 28.807091 +06 22 01.57647
 2018-Nov-15 04:01 Cm  23 08 28.861200 +06 22 01.68383
 2018-Nov-15 04:02 Cm  23 08 28.915305 +06 22 01.79117
 2018-Nov-15 04:03 Cm  23 08 28.969406 +06 22 01.89850
 2018-Nov-15 04:04 Cm  23 08 29.023502 +06 22 02.00583
 2018-Nov-15 04:05 Cm  23 08 29.077593 +06 22 02.11314
 2018-Nov-15 04:06 Nm  23 08 29.131681 +06 22 02.22044
 2018-Nov-15 04:07 Nm  23 08 29.185764 +06 22 02.32773
 2018-Nov-15 04:08 Nm  23 08 29.239842 +06 22 02.43500
 2018-Nov-15 04:09 Nm  23 08 29.293917 +06 22 02.54227
 2018-Nov-15 04:10 Nm  23 08 29.347987 +06 22 02.64953
 2018-Nov-15 04:11 Nm  23 08 29.402053 +06 22 02.75677
 2018-Nov-15 04:12 Nm  23 08 29.456115 +06 22 02.86400
 2018-Nov-15 04:13 Nm  23 08 29.510173 +06 22 02.97122
 2018-Nov-15 04:14 Nm  23 08 29.564227 +06 22 03.07843
 2018-Nov-15 04:15 Nm  23 08 29.618277 +06 22 03.18563
 2018-Nov-15 04:16 Nm  23 08 29.672323 +06 22 03.29282
 2018-Nov-15 04:17 Nm  23 08 29.726365 +06 22 03.39999
 2018-Nov-15 04:18 Nm  23 08 29.780403 +06 22 03.50716
 2018-Nov-15 04:19 Nm  23 08 29.834438 +06 22 03.61431
 2018-Nov-15 04:20 Nm  23 08 29.888468 +06 22 03.72145
 2018-Nov-15 04:21 Nm  23 08 29.942495 +06 22 03.82858
 2018-Nov-15 04:22 Nm  23 08 29.996518 +06 22 03.93570
 2018-Nov-15 04:23 Nm  23 08 30.050537 +06 22 04.04280
 2018-Nov-15 04:24 Nm  23 08 30.104553 +06 22 04.14990
 2018-Nov-15 04:25 Nm  23 08 30.158565 +06 22 04.25698
 2018-Nov-15 04:26 Nm  23 08 30.212574 +06 22 04.36405
 2018-Nov-15 04:27 Nm  23 08 30.266579 +06 22 04.47111
 2018-Nov-15 04:28 Nm  23 08 30.320581 +06 22 04.57816
 2018-Nov-15 04:29 Nm  23 08 30.374579 +06 22 04.68519
 2018-Nov-15 04:30 Nm  23 08 30.428574 +06 22 04.79222
 2018-Nov-15 04:31 Nm  23 08 30.482565 +06 22 04.89923
 2018-Nov-15 04:32 Nm  23 08 30.536553 +06 22 05.00623
 2018-Nov-15 04:33 Am  23 08 30.590538 +06 22 05.11322
 2018-Nov-15 04:34 Am  23 08 30.644520 +06 22 05.22019
 2018-Nov-15 04:35 Am  23 08 30.698498 +06 22 05.32716
 2018-Nov-15 04:36 Am  23 08 30.752474 +06 22 05.43411
 2018-Nov-15 04:37 Am  23 08 30.806446 +06 22 05.54105
 2018-Nov-15 04:38 Am  23 08 30.860415 +06 22 05.64798
 2018-Nov-15 04:39 Am  23 08 30.914381 +06 22 05.75489
 2018-Nov-15 04:40 Am  23 08 30.968344 +06 22 05.86179
 2018-Nov-15 04:41 Am  23 08 31.022304 +06 22 05.96869
 2018-Nov-15 04:42 Am  23 08 31.076262 +06 22 06.07557
 2018-Nov-15 04:43 Am  23 08 31.130216 +06 22 06.18243
 2018-Nov-15 04:44 Am  23 08 31.184168 +06 22 06.28929
 2018-Nov-15 04:45 Am  23 08 31.238116 +06 22 06.39613
 2018-Nov-15 04:46 Am  23 08 31.292063 +06 22 06.50296
 2018-Nov-15 04:47 Am  23 08 31.346006 +06 22 06.60978
 2018-Nov-15 04:48 Am  23 08 31.399947 +06 22 06.71659
 2018-Nov-15 04:49 Am  23 08 31.453885 +06 22 06.82338
 2018-Nov-15 04:50 Am  23 08 31.507820 +06 22 06.93016
 2018-Nov-15 04:51 Am  23 08 31.561753 +06 22 07.03693
 2018-Nov-15 04:52 Am  23 08 31.615684 +06 22 07.14369
 2018-Nov-15 04:53 Am  23 08 31.669612 +06 22 07.25043
 2018-Nov-15 04:54 Am  23 08 31.723538 +06 22 07.35716
 2018-Nov-15 04:55 Am  23 08 31.777461 +06 22 07.46388
 2018-Nov-15 04:56 Am  23 08 31.831382 +06 22 07.57059
 2018-Nov-15 04:57 Am  23 08 31.885301 +06 22 07.67728
 2018-Nov-15 04:58 Am  23 08 31.939217 +06 22 07.78397
 2018-Nov-15 04:59  m  23 08 31.993131 +06 22 07.89063
 2018-Nov-15 05:00  m  23 08 32.047043 +06 22 07.99729
 2018-Nov-15 05:01  m  23 08 32.100953 +06 22 08.10394
 2018-Nov-15 05:02  m  23 08 32.154861 +06 22 08.21057
 2018-Nov-15 05:03  m  23 08 32.208767 +06 22 08.31719
 2018-Nov-15 05:04  m  23 08 32.262671 +06 22 08.42379
 2018-Nov-15 05:05  m  23 08 32.316573 +06 22 08.53039
 2018-Nov-15 05:06  m  23 08 32.370473 +06 22 08.63697
 2018-Nov-15 05:07  m  23 08 32.424372 +06 22 08.74354
 2018-Nov-15 05:08  m  23 08 32.478268 +06 22 08.85010
 2018-Nov-15 05:09  m  23 08 32.532163 +06 22 08.95664
 2018-Nov-15 05:10  m  23 08 32.586056 +06 22 09.06317
 2018-Nov-15 05:11  m  23 08 32.639947 +06 22 09.16969
 2018-Nov-15 05:12  m  23 08 32.693837 +06 22 09.27619
 2018-Nov-15 05:13  m  23 08 32.747725 +06 22 09.38269
 2018-Nov-15 05:14  m  23 08 32.801611 +06 22 09.48917
 2018-Nov-15 05:15  m  23 08 32.855496 +06 22 09.59564
 2018-Nov-15 05:16  m  23 08 32.909380 +06 22 09.70209
 2018-Nov-15 05:17  m  23 08 32.963262 +06 22 09.80853
 2018-Nov-15 05:18  m  23 08 33.017142 +06 22 09.91496
 2018-Nov-15 05:19  m  23 08 33.071022 +06 22 10.02138
 2018-Nov-15 05:20  m  23 08 33.124900 +06 22 10.12778
 2018-Nov-15 05:21  m  23 08 33.178777 +06 22 10.23417
 2018-Nov-15 05:22  m  23 08 33.232652 +06 22 10.34055
 2018-Nov-15 05:23  m  23 08 33.286527 +06 22 10.44691
 2018-Nov-15 05:24  m  23 08 33.340400 +06 22 10.55327
 2018-Nov-15 05:25  m  23 08 33.394272 +06 22 10.65961
 2018-Nov-15 05:26  m  23 08 33.448143 +06 22 10.76593
 2018-Nov-15 05:27  m  23 08 33.502013 +06 22 10.87225
 2018-Nov-15 05:28  m  23 08 33.555883 +06 22 10.97855
 2018-Nov-15 05:29  m  23 08 33.609751 +06 22 11.08483
 2018-Nov-15 05:30  m  23 08 33.663618 +06 22 11.19111
 2018-Nov-15 05:31  m  23 08 33.717485 +06 22 11.29737
 2018-Nov-15 05:32  m  23 08 33.771351 +06 22 11.40362
 2018-Nov-15 05:33  m  23 08 33.825216 +06 22 11.50986
 2018-Nov-15 05:34  m  23 08 33.879080 +06 22 11.61608
 2018-Nov-15 05:35  m  23 08 33.932944 +06 22 11.72229
 2018-Nov-15 05:36  m  23 08 33.986807 +06 22 11.82849
 2018-Nov-15 05:37  m  23 08 34.040670 +06 22 11.93467
 2018-Nov-15 05:38  m  23 08 34.094532 +06 22 12.04084
 2018-Nov-15 05:39  m  23 08 34.148393 +06 22 12.14700
 2018-Nov-15 05:40  m  23 08 34.202254 +06 22 12.25315
 2018-Nov-15 05:41  m  23 08 34.256115 +06 22 12.35928
 2018-Nov-15 05:42  m  23 08 34.309975 +06 22 12.46540
 2018-Nov-15 05:43  m  23 08 34.363835 +06 22 12.57151
 2018-Nov-15 05:44  m  23 08 34.417695 +06 22 12.67760
 2018-Nov-15 05:45  m  23 08 34.471555 +06 22 12.78368
 2018-Nov-15 05:46  m  23 08 34.525414 +06 22 12.88975
 2018-Nov-15 05:47  m  23 08 34.579273 +06 22 12.99580
 2018-Nov-15 05:48  m  23 08 34.633133 +06 22 13.10185
 2018-Nov-15 05:49  m  23 08 34.686992 +06 22 13.20788
 2018-Nov-15 05:50  m  23 08 34.740851 +06 22 13.31389
 2018-Nov-15 05:51  m  23 08 34.794710 +06 22 13.41989
 2018-Nov-15 05:52  m  23 08 34.848569 +06 22 13.52588
 2018-Nov-15 05:53  m  23 08 34.902429 +06 22 13.63186
 2018-Nov-15 05:54  m  23 08 34.956288 +06 22 13.73782
